[{"OBJECT_NAME":"TIANQI-14","OBJECT_ID":"2021-055E","EPOCH":"2026-03-09T21:13:53.334048","MEAN_MOTION":15.12385268,"ECCENTRICITY":0.00041067,"INCLINATION":35.0005,"RA_OF_ASC_NODE":333.4675,"ARG_OF_PERICENTER":169.8812,"MEAN_ANOMALY":190.1982,"EPHEMERIS_TYPE":0,"CLASSIFICATION_TYPE":"U","NORAD_CAT_ID":48864,"ELEMENT_SET_NO":999,"REV_AT_EPOCH":25867,"BSTAR":0.00046306259,"MEAN_MOTION_DOT":8.192e-5,"MEAN_MOTION_DDOT":0},{"OBJECT_NAME":"CZ-4 DEB","OBJECT_ID":"2006-046H","EPOCH":"2026-03-09T02:48:41.934528","MEAN_MOTION":15.12857559,"ECCENTRICITY":0.00451328,"INCLINATION":97.5575,"RA_OF_ASC_NODE":118.4736,"ARG_OF_PERICENTER":295.6188,"MEAN_ANOMALY":89.8626,"EPHEMERIS_TYPE":0,"CLASSIFICATION_TYPE":"U","NORAD_CAT_ID":35375,"ELEMENT_SET_NO":999,"REV_AT_EPOCH":5626,"BSTAR":0.00023308037,"MEAN_MOTION_DOT":4.131e-5,"MEAN_MOTION_DDOT":0}]
